EOSSAT-1                
1 55053U 23001AW  26068.73619225  .00007695  00000+0  24844-3 0  9992
2 55053  97.3357 130.2294 0011263 110.3168 249.9285 15.32339828176689
STARLINK-35403          
1 66081U 25235Z   26068.80604402  .00020620  00000+0  70629-3 0  9990
2 66081  53.1594 244.4130 0001017  94.1706 265.9411 15.30204053 22942
